[{"OBJECT_NAME":"VIZARD-METEO (RS38S)","OBJECT_ID":"2023-091Z","EPOCH":"2026-03-09T23:01:09.168960","MEAN_MOTION":15.32764799,"ECCENTRICITY":0.00087615,"INCLINATION":97.5192,"RA_OF_ASC_NODE":136.6522,"ARG_OF_PERICENTER":71.7666,"MEAN_ANOMALY":288.4529,"EPHEMERIS_TYPE":0,"CLASSIFICATION_TYPE":"U","NORAD_CAT_ID":57189,"ELEMENT_SET_NO":999,"REV_AT_EPOCH":14947,"BSTAR":0.00066106249,"MEAN_MOTION_DOT":0.00020895,"MEAN_MOTION_DDOT":0},{"OBJECT_NAME":"STARLINK-33917","OBJECT_ID":"2025-113M","EPOCH":"2026-03-09T07:10:30.712512","MEAN_MOTION":15.30191987,"ECCENTRICITY":0.00012692,"INCLINATION":53.1594,"RA_OF_ASC_NODE":93.0604,"ARG_OF_PERICENTER":95.2755,"MEAN_ANOMALY":264.8391,"EPHEMERIS_TYPE":0,"CLASSIFICATION_TYPE":"U","NORAD_CAT_ID":64181,"ELEMENT_SET_NO":999,"REV_AT_EPOCH":4500,"BSTAR":0.00061656929,"MEAN_MOTION_DOT":0.00017941,"MEAN_MOTION_DDOT":0}]
